NORAD_CAT_ID,OBJECT_NAME,OBJECT_TYPE,EPOCH,MEAN_MOTION,ECCENTRICITY,INCLINATION,RA_OF_ASC_NODE,ARG_OF_PERICENTER,MEAN_ANOMALY,BSTAR,MEAN_MOTION_DOT,MEAN_MOTION_DDOT,TLE_LINE0,TLE_LINE1,TLE_LINE2,SEMIMAJOR_AXIS,PERIOD,APOGEE,PERIGEE,DECAYED
55773.0,STARLINK-5833,PAYLOAD,2024-07-14 13:56:19,14.98336866,0.0003154,70.0007,305.0933,268.4391,91.6406,8.126e-05,8.77e-06,0.0,0 STARLINK-5833,1 55773U 23028AJ  24196.58078504  .00000877  00000-0  81260-4 0  9994,2 55773  70.0007 305.0933 0003154 268.4391  91.6406 14.98336866 76195,6950.172,96.107,574.229,569.845,0.0
55773.0,STARLINK-5833,PAYLOAD,2024-07-14 17:08:35,14.98341532,0.0003173,70.0008,304.7571,270.2874,89.7922,0.00013004,1.459e-05,0.0,0 STARLINK-5833,1 55773U 23028AJ  24196.71430007  .00001459  00000-0  13004-3 0  9996,2 55773  70.0008 304.7571 0003173 270.2874  89.7922 14.98341532 76218,6950.157,96.106,574.228,569.817,0.0
55773.0,STARLINK-5833,PAYLOAD,2024-07-15 01:09:16,14.9833712,0.0003457,70.0009,303.9143,257.2025,102.8748,-9.4667e-05,-1.223e-05,0.0,0 STARLINK-5833,1 55773U 23028AJ  24197.04810538 -.00001223  00000-0 -94667-4 0  9990,2 55773  70.0009 303.9143 0003457 257.2025 102.8748 14.98337120 76269,6950.171,96.107,574.439,569.633,0.0
55773.0,STARLINK-5833,PAYLOAD,2024-07-15 12:22:13,14.98327695,0.0002913,70.002,302.7373,269.7045,90.3781,-8.7811e-06,-1.98e-06,0.0,0 STARLINK-5833,1 55773U 23028AJ  24197.51543152 -.00000198  00000-0 -87811-5 0  9991,2 55773  70.0020 302.7373 0002913 269.7045  90.3781 14.98327695 76332,6950.2,96.107,574.09,570.04,0.0
55773.0,STARLINK-5833,PAYLOAD,2024-07-15 13:58:20,14.98333048,0.0002962,70.0011,302.5683,268.697,91.385,1.0297e-05,3e-07,0.0,0 STARLINK-5833,1 55773U 23028AJ  24197.58218731  .00000030  00000-0  10297-4 0  9996,2 55773  70.0011 302.5683 0002962 268.6970  91.3850 14.98333048 76341,6950.183,96.107,574.107,569.99,0.0
55773.0,STARLINK-5833,PAYLOAD,2024-07-15 17:10:36,14.98334521,0.0003092,70.001,302.2319,268.7378,91.3427,1.7424e-05,1.15e-06,0.0,0 STARLINK-5833,1 55773U 23028AJ  24197.71570583  .00000115  00000-0  17424-4 0  9990,2 55773  70.0010 302.2319 0003092 268.7378  91.3427 14.98334521 76360,6950.179,96.107,574.193,569.895,0.0
55773.0,STARLINK-5833,PAYLOAD,2024-07-16 12:24:14,14.98333163,0.0002965,70.001,300.2121,271.0878,88.9941,4.5628e-05,4.52e-06,0.0,0 STARLINK-5833,1 55773U 23028AJ  24198.51683821  .00000452  00000-0  45628-4 0  9990,2 55773  70.0010 300.2121 0002965 271.0878  88.9941 14.98333163 76486,6950.183,96.107,574.109,569.987,0.0
55773.0,STARLINK-5833,PAYLOAD,2024-07-16 14:00:23,14.98332156,0.0003065,70.0008,300.0458,273.2339,86.8469,-1.4405e-05,-2.65e-06,0.0,0 STARLINK-5833,1 55773U 23028AJ  24198.58360100 -.00000265  00000-0 -14405-4 0  9992,2 55773  70.0008 300.0458 0003065 273.2339  86.8469 14.98332156 76496,6950.186,96.107,574.181,569.921,0.0
55773.0,STARLINK-5833,PAYLOAD,2024-07-16 17:12:38,14.98336619,0.0003133,70.0007,299.7099,267.3568,92.7232,3.2167e-05,2.91e-06,0.0,0 STARLINK-5833,1 55773U 23028AJ  24198.71711602  .00000291  00000-0  32167-4 0  9996,2 55773  70.0007 299.7099 0003133 267.3568  92.7232 14.98336619 76519,6950.172,96.107,574.215,569.86,0.0
55773.0,STARLINK-5833,PAYLOAD,2024-07-17 12:26:14,14.98340612,0.0003014,70.0023,297.6868,285.0883,74.9942,0.00023089,2.664e-05,0.0,0 STARLINK-5833,1 55773U 23028AJ  24199.51822810  .00002664  00000-0  23089-3 0  9997,2 55773  70.0023 297.6868 0003014 285.0883  74.9942 14.98340612 76634,6950.16,96.106,574.12,569.93,0.0
55773.0,STARLINK-5833,PAYLOAD,2024-07-17 14:02:21,14.98360523,0.0002871,70.0016,297.5217,252.4968,107.5878,0.00038353,4.49e-05,0.0,0 STARLINK-5833,1 55773U 23028AJ  24199.58496730  .00004490  00000-0  38353-3 0  9991,2 55773  70.0016 297.5217 0002871 252.4968 107.5878 14.98360523 76640,6950.099,96.105,573.959,569.968,0.0
55773.0,STARLINK-5833,PAYLOAD,2024-07-17 18:50:44,14.98372459,0.0003392,70.0001,297.0139,267.2339,92.8432,0.00048437,5.698e-05,0.0,0 STARLINK-5833,1 55773U 23028AJ  24199.78523356  .00005698  00000-0  48437-3 0  9993,2 55773  70.0001 297.0139 0003392 267.2339  92.8432 14.98372459 76673,6950.062,96.104,574.284,569.569,0.0
55773.0,STARLINK-5833,PAYLOAD,2024-07-17 23:39:10,14.98336447,0.0003964,70.0016,296.5113,260.0342,100.0369,5.4318e-05,5.55e-06,0.0,0 STARLINK-5833,1 55773U 23028AJ  24199.98554082  .00000555  00000-0  54318-4 0  9998,2 55773  70.0016 296.5113 0003964 260.0342 100.0369 14.98336447 76707,6950.173,96.107,574.793,569.283,0.0
55773.0,STARLINK-5833,PAYLOAD,2024-07-18 12:28:17,14.98309982,0.0003031,70.0011,295.164,270.2953,89.7859,0.00021971,2.528e-05,0.0,0 STARLINK-5833,1 55773U 23028AJ  24200.51964313  .00002528  00000-0  21971-3 0  9992,2 55773  70.0011 295.1640 0003031 270.2953  89.7859 14.98309982 76787,6950.255,96.108,574.226,570.013,0.0
55773.0,STARLINK-5833,PAYLOAD,2024-07-18 14:04:25,14.98311757,0.0003077,70.0011,294.9956,271.5901,88.4905,0.00022664,2.611e-05,0.0,0 STARLINK-5833,1 55773U 23028AJ  24200.58640230  .00002611  00000-0  22664-3 0  9991,2 55773  70.0011 294.9956 0003077 271.5901  88.4905 14.98311757 76793,6950.249,96.108,574.253,569.976,0.0
55773.0,STARLINK-5833,PAYLOAD,2024-07-19 12:30:17,14.98343918,0.0003082,70.0009,292.6392,259.1104,100.9708,-0.00035809,-4.365e-05,0.0,0 STARLINK-5833,1 55773U 23028AJ  24201.52103417 -.00004365  00000-0 -35809-3 0  9992,2 55773  70.0009 292.6392 0003082 259.1104 100.9708 14.98343918 76933,6950.15,96.106,574.157,569.873,0.0
55773.0,STARLINK-5833,PAYLOAD,2024-07-19 14:06:25,14.98343736,0.0003062,70.0009,292.4707,260.1966,99.8847,-0.00030973,-3.788e-05,0.0,0 STARLINK-5833,1 55773U 23028AJ  24201.58779231 -.00003788  00000-0 -30973-3 0  9996,2 55773  70.0009 292.4707 0003062 260.1966  99.8847 14.98343736 76946,6950.15,96.106,574.144,569.887,0.0
55773.0,STARLINK-5833,PAYLOAD,2024-07-19 15:42:32,14.98349283,0.0003283,70.0004,292.3027,263.6959,96.3827,-0.00030595,-3.744e-05,0.0,0 STARLINK-5833,1 55773U 23028AJ  24201.65454820 -.00003744  00000-0 -30595-3 0  9990,2 55773  70.0004 292.3027 0003283 263.6959  96.3827 14.98349283 76954,6950.133,96.106,574.28,569.717,0.0
55773.0,STARLINK-5833,PAYLOAD,2024-07-19 23:43:12,14.9835217,0.0003473,70.0,291.4581,266.938,93.1381,-0.0003307,-4.039e-05,0.0,0 STARLINK-5833,1 55773U 23028AJ  24201.98834278 -.00004039  00000-0 -33070-3 0  9994,2 55773  70.0000 291.4581 0003473 266.9380  93.1381 14.98352170 77006,6950.124,96.106,574.403,569.576,0.0
55773.0,STARLINK-5833,PAYLOAD,2024-07-20 12:32:17,14.98329497,0.0003203,70.0005,290.1141,263.5365,96.5429,0.00013867,1.562e-05,0.0,0 STARLINK-5833,1 55773U 23028AJ  24202.52242566  .00001562  00000-0  13867-3 0  9996,2 55773  70.0005 290.1141 0003203 263.5365  96.5429 14.98329497 77080,6950.194,96.107,574.286,569.833,0.0
55773.0,STARLINK-5833,PAYLOAD,2024-07-20 14:08:25,14.98331838,0.00032,70.0006,289.9459,264.4726,95.6068,0.00014279,1.611e-05,0.0,0 STARLINK-5833,1 55773U 23028AJ  24202.58918409  .00001611  00000-0  14279-3 0  9991,2 55773  70.0006 289.9459 0003200 264.4726  95.6068 14.98331838 77099,6950.187,96.107,574.276,569.828,0.0
55773.0,STARLINK-5833,PAYLOAD,2024-07-21 12:34:19,14.98319467,0.0003102,70.001,287.5882,271.7956,88.2848,-5.353e-05,-7.31e-06,0.0,0 STARLINK-5833,1 55773U 23028AJ  24203.52384017 -.00000731  00000-0 -53530-4 0  9996,2 55773  70.0010 287.5882 0003102 271.7956  88.2848 14.98319467 77239,6950.225,96.108,574.246,569.935,0.0
55773.0,STARLINK-5833,PAYLOAD,2024-07-21 14:10:28,14.98307771,0.0003228,70.001,287.4183,270.4161,89.6628,0.00011788,1.313e-05,0.0,0 STARLINK-5833,1 55773U 23028AJ  24203.59060291  .00001313  00000-0  11788-3 0  9991,2 55773  70.0010 287.4183 0003228 270.4161  89.6628 14.98307771 77242,6950.262,96.108,574.37,569.883,0.0
55773.0,STARLINK-5833,PAYLOAD,2024-07-21 15:46:35,14.98319944,0.0003453,69.9999,287.2518,269.9221,90.1543,-7.0635e-05,-9.36e-06,0.0,0 STARLINK-5833,1 55773U 23028AJ  24203.65736026 -.00000936  00000-0 -70635-4 0  9993,2 55773  69.9999 287.2518 0003453 269.9221  90.1543 14.98319944 77254,6950.224,96.108,574.489,569.689,0.0
55773.0,STARLINK-5833,PAYLOAD,2024-07-22 04:35:39,14.98328822,0.0003282,70.0001,285.904,270.8854,89.1928,-8.8661e-06,-1.99e-06,0.0,0 STARLINK-5833,1 55773U 23028AJ  24204.19143492 -.00000199  00000-0 -88661-5 0  9992,2 55773  70.0001 285.9040 0003282 270.8854  89.1928 14.98328822 77338,6950.197,96.107,574.343,569.78,0.0
55773.0,STARLINK-5833,PAYLOAD,2024-07-22 09:24:03,14.98331,0.0003376,69.9999,285.3996,269.4015,90.6757,4.6792e-05,4.65e-06,0.0,0 STARLINK-5833,1 55773U 23028AJ  24204.39171177  .00000465  00000-0  46792-4 0  9997,2 55773  69.9999 285.3996 0003376 269.4015  90.6757 14.98331000 77364,6950.19,96.107,574.401,569.708,0.0
55773.0,STARLINK-5833,PAYLOAD,2024-07-23 04:37:40,14.98330089,0.0003404,70.0,283.3798,273.8883,86.1887,0.00017778,2.029e-05,0.0,0 STARLINK-5833,1 55773U 23028AJ  24205.19282675  .00002029  00000-0  17778-3 0  9991,2 55773  70.0000 283.3798 0003404 273.8883  86.1887 14.98330089 77485,6950.193,96.107,574.423,569.692,0.0
55773.0,STARLINK-5833,PAYLOAD,2024-07-23 09:26:04,14.98328411,0.0003379,69.9999,282.8747,274.0359,86.0414,0.00014903,1.686e-05,0.0,0 STARLINK-5833,1 55773U 23028AJ  24205.39310868  .00001686  00000-0  14903-3 0  9994,2 55773  69.9999 282.8747 0003379 274.0359  86.0414 14.98328411 77514,6950.198,96.107,574.411,569.714,0.0
55773.0,STARLINK-5833,PAYLOAD,2024-07-24 04:39:41,14.98332436,0.0003361,69.9994,280.8544,272.4888,87.5886,-6.7854e-05,-9.03e-06,0.0,0 STARLINK-5833,1 55773U 23028AJ  24206.19423322 -.00000903  00000-0 -67854-4 0  9990,2 55773  69.9994 280.8544 0003361 272.4888  87.5886 14.98332436 77636,6950.185,96.107,574.386,569.714,0.0
55773.0,STARLINK-5833,PAYLOAD,2024-07-24 09:28:06,14.9833073,0.0003817,69.9988,280.3491,277.8226,82.25,-8.3892e-05,-1.094e-05,0.0,0 STARLINK-5833,1 55773U 23028AJ  24206.39451467 -.00001094  00000-0 -83892-4 0  9995,2 55773  69.9988 280.3491 0003817 277.8226  82.2500 14.98330730 77669,6950.191,96.107,574.709,569.403,0.0
